{"type": "FeatureCollection", "features": [ {"type": "Feature", "properties": {"norad_id": 34058, "name": "COSMOS 2251 DEB", "group": "cosmos-2251-debris", "lat": -17.69788066223955, "lon": -19.081963920420016, "alt_km": 868.4909279641961, "timestamp": "2025-12-26T14:28:48.096729+00:00", "meta": {"OBJECT_NAME": "COSMOS 2251 DEB", "OBJECT_ID": "1993-036JV", "EPOCH": "2025-12-25T20:26:12.164352", "MEAN_MOTION": 13.56097038, "ECCENTRICITY": 0.03773293, "INCLINATION": 73.9318, "RA_OF_ASC_NODE": 156.8596, "ARG_OF_PERICENTER": 149.603, "MEAN_ANOMALY": 336.5603, "EPHEMERIS_TYPE": 0, "CLASSIFICATION_TYPE": "U", "NORAD_CAT_ID": 34058, "ELEMENT_SET_NO": 999, "REV_AT_EPOCH": 83320, "BSTAR": 0.00080484436, "MEAN_MOTION_DOT": 8.73e-06, "MEAN_MOTION_DDOT": 0}, "tle": {"line1": "1 34058U 93036JV  25359.85152968  .00000873  00000+0  80484-3 0  9993", "line2": "2 34058  73.9318 156.8596 0377329 149.6030 336.5603 13.56097038833201"}}, "geometry": {"type": "Point", "coordinates": [-19.081963920420016, -17.69788066223955]}}, {"type": "Feature", "properties": {"norad_id": 34059, "name": "COSMOS 2251 DEB", "group": "cosmos-2251-debris", "lat": -26.270109331291838, "lon": -11.756269854702484, "alt_km": 709.6804060910454, "timestamp": "2025-12-26T14:28:48.096739+00:00", "meta": {"OBJECT_NAME": "COSMOS 2251 DEB", "OBJECT_ID": "1993-036JW", "EPOCH": "2025-12-25T19:56:17.993184", "MEAN_MOTION": 14.53026462, "ECCENTRICITY": 0.00183886, "INCLINATION": 74.0376, "RA_OF_ASC_NODE": 161.5792, "ARG_OF_PERICENTER": 237.9298, "MEAN_ANOMALY": 249.8826, "EPHEMERIS_TYPE": 0, "CLASSIFICATION_TYPE": "U", "NORAD_CAT_ID": 34059, "ELEMENT_SET_NO": 999, "REV_AT_EPOCH": 88649, "BSTAR": 0.00090187113, "MEAN_MOTION_DOT": 3.705e-05, "MEAN_MOTION_DDOT": 0}, "tle": {"line1": "1 34059U 93036JW  25359.83076381  .00003705  00000+0  90187-3 0  9994", "line2": "2 34059  74.0376 161.5792 0018388 237.9298 249.8826 14.53026462886496"}}, "geometry": {"type": "Point", "coordinates": [-11.756269854702484, -26.270109331291838]}}, {"type": "Feature", "properties": {"norad_id": 34061, "name": "COSMOS 2251 DEB", "group": "cosmos-2251-debris", "lat": -68.08782126647549, "lon": -167.5947293103712, "alt_km": 750.8808455373446, "timestamp": "2025-12-26T14:28:48.096750+00:00", "meta": {"OBJECT_NAME": "COSMOS 2251 DEB", "OBJECT_ID": "1993-036JY", "EPOCH": "2025-12-26T02:04:17.271264", "MEAN_MOTION": 14.40383114, "ECCENTRICITY": 0.00209203, "INCLINATION": 74.0385, "RA_OF_ASC_NODE": 238.7192, "ARG_OF_PERICENTER": 313.753, "MEAN_ANOMALY": 171.712, "EPHEMERIS_TYPE": 0, "CLASSIFICATION_TYPE": "U", "NORAD_CAT_ID": 34061, "ELEMENT_SET_NO": 999, "REV_AT_EPOCH": 88372, "BSTAR": 0.0002669679, "MEAN_MOTION_DOT": 8.23e-06, "MEAN_MOTION_DDOT": 0}, "tle": {"line1": "1 34061U 93036JY  25360.08631101  .00000823  00000+0  26697-3 0  9996", "line2": "2 34061  74.0385 238.7192 0020920 313.7530 171.7120 14.40383114883726"}}, "geometry": {"type": "Point", "coordinates": [-167.5947293103712, -68.08782126647549]}}, {"type": "Feature", "properties": {"norad_id": 34062, "name": "COSMOS 2251 DEB", "group": "cosmos-2251-debris", "lat": 11.177867981298567, "lon": -72.48533026663263, "alt_km": 584.6319374042605, "timestamp": "2025-12-26T14:28:48.096760+00:00", "meta": {"OBJECT_NAME": "COSMOS 2251 DEB", "OBJECT_ID": "1993-036JZ", "EPOCH": "2025-12-26T07:22:02.240832", "MEAN_MOTION": 14.79205742, "ECCENTRICITY": 0.0072612, "INCLINATION": 74.028, "RA_OF_ASC_NODE": 111.3422, "ARG_OF_PERICENTER": 187.594, "MEAN_ANOMALY": 203.3979, "EPHEMERIS_TYPE": 0, "CLASSIFICATION_TYPE": "U", "NORAD_CAT_ID": 34062, "ELEMENT_SET_NO": 999, "REV_AT_EPOCH": 88796, "BSTAR": 0.0025590846, "MEAN_MOTION_DOT": 0.00019888, "MEAN_MOTION_DDOT": 0}, "tle": {"line1": "1 34062U 93036JZ  25360.30697038  .00019888  00000+0  25591-2 0  9995", "line2": "2 34062  74.0280 111.3422 0072612 187.5940 203.3979 14.79205742887966"}}, "geometry": {"type": "Point", "coordinates": [-72.48533026663263, 11.177867981298567]}}, {"type": "Feature", "properties": {"norad_id": 34064, "name": "COSMOS 2251 DEB", "group": "cosmos-2251-debris", "lat": -1.694848135381581, "lon": -115.33636761855017, "alt_km": 742.8755736119329, "timestamp": "2025-12-26T14:28:48.096770+00:00", "meta": {"OBJECT_NAME": "COSMOS 2251 DEB", "OBJECT_ID": "1993-036KB", "EPOCH": "2025-12-26T01:28:50.155104", "MEAN_MOTION": 14.42380475, "ECCENTRICITY": 0.00224198, "INCLINATION": 74.0318, "RA_OF_ASC_NODE": 246.1536, "ARG_OF_PERICENTER": 310.9356, "MEAN_ANOMALY": 115.8427, "EPHEMERIS_TYPE": 0, "CLASSIFICATION_TYPE": "U", "NORAD_CAT_ID": 34064, "ELEMENT_SET_NO": 999, "REV_AT_EPOCH": 88334, "BSTAR": 0.00044701194, "MEAN_MOTION_DOT": 1.456e-05, "MEAN_MOTION_DDOT": 0}, "tle": {"line1": "1 34064U 93036KB  25360.06169161  .00001456  00000+0  44701-3 0  9998", "line2": "2 34064  74.0318 246.1536 0022419 310.9356 115.8427 14.42380475883346"}}, "geometry": {"type": "Point", "coordinates": [-115.33636761855017, -1.694848135381581]}}, {"type": "Feature", "properties": {"norad_id": 34065, "name": "COSMOS 2251 DEB", "group": "cosmos-2251-debris", "lat": 21.58928437985768, "lon": 46.080906578506344, "alt_km": 776.2056016311635, "timestamp": "2025-12-26T14:28:48.096780+00:00", "meta": {"OBJECT_NAME": "COSMOS 2251 DEB", "OBJECT_ID": "1993-036KC", "EPOCH": "2025-12-26T02:46:01.399008", "MEAN_MOTION": 14.38075941, "ECCENTRICITY": 0.00168964, "INCLINATION": 74.0346, "RA_OF_ASC_NODE": 233.4842, "ARG_OF_PERICENTER": 328.7769, "MEAN_ANOMALY": 183.0463, "EPHEMERIS_TYPE": 0, "CLASSIFICATION_TYPE": "U", "NORAD_CAT_ID": 34065, "ELEMENT_SET_NO": 999, "REV_AT_EPOCH": 88397, "BSTAR": 0.00013999958, "MEAN_MOTION_DOT": 3.98e-06, "MEAN_MOTION_DDOT": 0}, "tle": {"line1": "1 34065U 93036KC  25360.11529397  .00000398  00000+0  14000-3 0  9999", "line2": "2 34065  74.0346 233.4842 0016896 328.7769 183.0463 14.38075941883974"}}, "geometry": {"type": "Point", "coordinates": [46.080906578506344, 21.58928437985768]}}, {"type": "Feature", "properties": {"norad_id": 34070, "name": "COSMOS 2251 DEB", "group": "cosmos-2251-debris", "lat": -14.660030314027829, "lon": -86.67645871330345, "alt_km": 629.3448485808631, "timestamp": "2025-12-26T14:28:48.096791+00:00", "meta": {"OBJECT_NAME": "COSMOS 2251 DEB", "OBJECT_ID": "1993-036KH", "EPOCH": "2025-12-25T01:01:03.747072", "MEAN_MOTION": 14.774265, "ECCENTRICITY": 0.00178437, "INCLINATION": 74.0006, "RA_OF_ASC_NODE": 92.0864, "ARG_OF_PERICENTER": 209.6173, "MEAN_ANOMALY": 326.6955, "EPHEMERIS_TYPE": 0, "CLASSIFICATION_TYPE": "U", "NORAD_CAT_ID": 34070, "ELEMENT_SET_NO": 999, "REV_AT_EPOCH": 88792, "BSTAR": 0.0025645795, "MEAN_MOTION_DOT": 0.00018324, "MEAN_MOTION_DDOT": 0}, "tle": {"line1": "1 34070U 93036KH  25359.04240448  .00018324  00000+0  25646-2 0  9997", "line2": "2 34070  74.0006  92.0864 0017843 209.6173 326.6955 14.77426500887929"}}, "geometry": {"type": "Point", "coordinates": [-86.67645871330345, -14.660030314027829]}}, {"type": "Feature", "properties": {"norad_id": 34114, "name": "COSMOS 2251 DEB", "group": "cosmos-2251-debris", "lat": 73.8484005793843, "lon": 98.27199714631922, "alt_km": 690.6316390140746, "timestamp": "2025-12-26T14:28:48.096801+00:00", "meta": {"OBJECT_NAME": "COSMOS 2251 DEB", "OBJECT_ID": "1993-036KK", "EPOCH": "2025-12-26T01:01:50.746080", "MEAN_MOTION": 14.56556889, "ECCENTRICITY": 0.0048243, "INCLINATION": 74.0593, "RA_OF_ASC_NODE": 18.6218, "ARG_OF_PERICENTER": 8.8903, "MEAN_ANOMALY": 20.7523, "EPHEMERIS_TYPE": 0, "CLASSIFICATION_TYPE": "U", "NORAD_CAT_ID": 34114, "ELEMENT_SET_NO": 999, "REV_AT_EPOCH": 87995, "BSTAR": 0.0017182196, "MEAN_MOTION_DOT": 7.753e-05, "MEAN_MOTION_DDOT": 0}, "tle": {"line1": "1 34114U 93036KK  25360.04294845  .00007753  00000+0  17182-2 0  9998", "line2": "2 34114  74.0593  18.6218 0048243   8.8903  20.7523 14.56556889879952"}}, "geometry": {"type": "Point", "coordinates": [98.27199714631922, 73.8484005793843]}}, {"type": "Feature", "properties": {"norad_id": 34115, "name": "COSMOS 2251 DEB", "group": "cosmos-2251-debris", "lat": -73.88681753917594, "lon": 131.4244502000549, "alt_km": 648.1271399783509, "timestamp": "2025-12-26T14:28:48.096811+00:00", "meta": {"OBJECT_NAME": "COSMOS 2251 DEB", "OBJECT_ID": "1993-036KL", "EPOCH": "2025-12-26T06:45:50.181120", "MEAN_MOTION": 14.79663462, "ECCENTRICITY": 0.00291106, "INCLINATION": 74.0052, "RA_OF_ASC_NODE": 215.2379, "ARG_OF_PERICENTER": 34.6993, "MEAN_ANOMALY": 325.6074, "EPHEMERIS_TYPE": 0, "CLASSIFICATION_TYPE": "U", "NORAD_CAT_ID": 34115, "ELEMENT_SET_NO": 999, "REV_AT_EPOCH": 89612, "BSTAR": 0.00088325953, "MEAN_MOTION_DOT": 6.648e-05, "MEAN_MOTION_DDOT": 0}, "tle": {"line1": "1 34115U 93036KL  25360.28183080  .00006648  00000+0  88326-3 0  9994", "line2": "2 34115  74.0052 215.2379 0029110  34.6993 325.6074 14.79663462896121"}}, "geometry": {"type": "Point", "coordinates": [131.4244502000549, -73.88681753917594]}}, {"type": "Feature", "properties": {"norad_id": 34116, "name": "COSMOS 2251 DEB", "group": "cosmos-2251-debris", "lat": -8.666308272215177, "lon": 154.12539505976108, "alt_km": 723.3438922912628, "timestamp": "2025-12-26T14:28:48.096822+00:00", "meta": {"OBJECT_NAME": "COSMOS 2251 DEB", "OBJECT_ID": "1993-036KM", "EPOCH": "2025-12-25T04:38:05.491968", "MEAN_MOTION": 14.53049393, "ECCENTRICITY": 0.0011793, "INCLINATION": 74.0399, "RA_OF_ASC_NODE": 159.2848, "ARG_OF_PERICENTER": 235.6371, "MEAN_ANOMALY": 301.5276, "EPHEMERIS_TYPE": 0, "CLASSIFICATION_TYPE": "U", "NORAD_CAT_ID": 34116, "ELEMENT_SET_NO": 999, "REV_AT_EPOCH": 88667, "BSTAR": 0.00085806, "MEAN_MOTION_DOT": 3.521e-05, "MEAN_MOTION_DDOT": 0}, "tle": {"line1": "1 34116U 93036KM  25359.19311912  .00003521  00000+0  85806-3 0  9997", "line2": "2 34116  74.0399 159.2848 0011793 235.6371 301.5276 14.53049393886674"}}, "geometry": {"type": "Point", "coordinates": [154.12539505976108, -8.666308272215177]}}]}